{"fetched_at":"2026-07-12T05:52:59.334Z","source":"https://celestrak.org/NORAD/elements/gp.php?NAME=ICEYE&FORMAT=JSON","constellation":"iceye","records":[{"OBJECT_NAME":"ICEYE-X2","OBJECT_ID":"2018-099AU","EPOCH":"2026-07-11T20:42:48.898944","CLASSIFICATION_TYPE":"U","MEAN_MOTION":15.18015495,"ECCENTRICITY":0.0009368,"INCLINATION":97.4354,"RA_OF_ASC_NODE":246.2717,"ARG_OF_PERICENTER":206.7968,"MEAN_ANOMALY":153.2783,"EPHEMERIS_TYPE":0,"NORAD_CAT_ID":43800,"ELEMENT_SET_NO":999,"REV_AT_EPOCH":41656,"BSTAR":0.00014668,"MEAN_MOTION_DOT":0.00002919,"MEAN_MOTION_DDOT":0},{"OBJECT_NAME":"ICEYE-X5","OBJECT_ID":"2019-038C","EPOCH":"2026-07-11T19:58:21.216000","CLASSIFICATION_TYPE":"U","MEAN_MOTION":15.57510769,"ECCENTRICITY":0.0007688,"INCLINATION":97.8682,"RA_OF_ASC_NODE":250.044,"ARG_OF_PERICENTER":158.528,"MEAN_ANOMALY":201.6298,"EPHEMERIS_TYPE":0,"NORAD_CAT_ID":44389,"ELEMENT_SET_NO":999,"REV_AT_EPOCH":38679,"BSTAR":0.00044374,"MEAN_MOTION_DOT":0.00032646,"MEAN_MOTION_DDOT":0},{"OBJECT_NAME":"ICEYE-X4","OBJECT_ID":"2019-038D","EPOCH":"2026-07-11T20:40:02.742240","CLASSIFICATION_TYPE":"U","MEAN_MOTION":15.29833723,"ECCENTRICITY":0.0012519,"INCLINATION":97.8753,"RA_OF_ASC_NODE":227.232,"ARG_OF_PERICENTER":210.0982,"MEAN_ANOMALY":149.9539,"EPHEMERIS_TYPE":0,"NORAD_CAT_ID":44390,"ELEMENT_SET_NO":999,"REV_AT_EPOCH":38557,"BSTAR":0.00024166,"MEAN_MOTION_DOT":0.00006913,"MEAN_MOTION_DDOT":0},{"OBJECT_NAME":"ICEYE-X7","OBJECT_ID":"2020-068L","EPOCH":"2026-07-11T21:35:42.854784","CLASSIFICATION_TYPE":"U","MEAN_MOTION":15.32051512,"ECCENTRICITY":0.0005713,"INCLINATION":97.7499,"RA_OF_ASC_NODE":160.5599,"ARG_OF_PERICENTER":227.3687,"MEAN_ANOMALY":132.7072,"EPHEMERIS_TYPE":0,"NORAD_CAT_ID":46496,"ELEMENT_SET_NO":999,"REV_AT_EPOCH":31857,"BSTAR":0.00021871,"MEAN_MOTION_DOT":0.00006686,"MEAN_MOTION_DDOT":0},{"OBJECT_NAME":"ICEYE-X6","OBJECT_ID":"2020-068M","EPOCH":"2026-07-11T20:44:53.727072","CLASSIFICATION_TYPE":"U","MEAN_MOTION":15.04654541,"ECCENTRICITY":0.0007512,"INCLINATION":98.0983,"RA_OF_ASC_NODE":187.7182,"ARG_OF_PERICENTER":19.6522,"MEAN_ANOMALY":340.4991,"EPHEMERIS_TYPE":0,"NORAD_CAT_ID":46497,"ELEMENT_SET_NO":999,"REV_AT_EPOCH":31694,"BSTAR":0.00015662,"MEAN_MOTION_DOT":0.00002135,"MEAN_MOTION_DDOT":0},{"OBJECT_NAME":"ICEYE-X21","OBJECT_ID":"2023-001AS","EPOCH":"2026-06-24T05:11:18.420288","CLASSIFICATION_TYPE":"U","MEAN_MOTION":16.24069885,"ECCENTRICITY":0.00123774,"INCLINATION":97.3001,"RA_OF_ASC_NODE":262.6152,"ARG_OF_PERICENTER":285.9702,"MEAN_ANOMALY":74.0225,"EPHEMERIS_TYPE":0,"NORAD_CAT_ID":55049,"ELEMENT_SET_NO":999,"REV_AT_EPOCH":19475,"BSTAR":0.000602142,"MEAN_MOTION_DOT":0.01585954,"MEAN_MOTION_DDOT":0.000002396838},{"OBJECT_NAME":"ICEYE-X25","OBJECT_ID":"2023-084AH","EPOCH":"2026-07-11T20:36:37.873152","CLASSIFICATION_TYPE":"U","MEAN_MOTION":15.62604877,"ECCENTRICITY":0.0004135,"INCLINATION":97.5899,"RA_OF_ASC_NODE":340.8521,"ARG_OF_PERICENTER":195.7137,"MEAN_ANOMALY":164.3992,"EPHEMERIS_TYPE":0,"NORAD_CAT_ID":56963,"ELEMENT_SET_NO":999,"REV_AT_EPOCH":17182,"BSTAR":0.00032584,"MEAN_MOTION_DOT":0.00029034,"MEAN_MOTION_DDOT":0},{"OBJECT_NAME":"ICEYE-X31","OBJECT_ID":"2023-174AJ","EPOCH":"2026-07-11T20:21:05.533344","CLASSIFICATION_TYPE":"U","MEAN_MOTION":15.35104602,"ECCENTRICITY":0.0002382,"INCLINATION":97.378,"RA_OF_ASC_NODE":268.593,"ARG_OF_PERICENTER":196.2809,"MEAN_ANOMALY":163.8359,"EPHEMERIS_TYPE":0,"NORAD_CAT_ID":58288,"ELEMENT_SET_NO":999,"REV_AT_EPOCH":14853,"BSTAR":0.00029769,"MEAN_MOTION_DOT":0.00010064,"MEAN_MOTION_DDOT":0},{"OBJECT_NAME":"ICEYE-X34","OBJECT_ID":"2023-174AQ","EPOCH":"2026-07-11T19:37:24.751776","CLASSIFICATION_TYPE":"U","MEAN_MOTION":15.70506949,"ECCENTRICITY":0.0001519,"INCLINATION":97.3866,"RA_OF_ASC_NODE":285.2894,"ARG_OF_PERICENTER":206.226,"MEAN_ANOMALY":153.8926,"EPHEMERIS_TYPE":0,"NORAD_CAT_ID":58294,"ELEMENT_SET_NO":999,"REV_AT_EPOCH":14960,"BSTAR":0.00086421,"MEAN_MOTION_DOT":0.00106942,"MEAN_MOTION_DDOT":0},{"OBJECT_NAME":"ICEYE-X35","OBJECT_ID":"2023-174AY","EPOCH":"2026-07-11T20:16:00.361632","CLASSIFICATION_TYPE":"U","MEAN_MOTION":15.54907938,"ECCENTRICITY":0.000813,"INCLINATION":97.379,"RA_OF_ASC_NODE":278.1377,"ARG_OF_PERICENTER":118.3202,"MEAN_ANOMALY":241.8873,"EPHEMERIS_TYPE":0,"NORAD_CAT_ID":58302,"ELEMENT_SET_NO":999,"REV_AT_EPOCH":14917,"BSTAR":0.00053697,"MEAN_MOTION_DOT":0.00035932,"MEAN_MOTION_DDOT":0},{"OBJECT_NAME":"ICEYE-X38","OBJECT_ID":"2024-043C","EPOCH":"2026-07-11T20:27:53.830368","CLASSIFICATION_TYPE":"U","MEAN_MOTION":15.13073761,"ECCENTRICITY":0.0002653,"INCLINATION":97.8426,"RA_OF_ASC_NODE":337.2851,"ARG_OF_PERICENTER":30.6654,"MEAN_ANOMALY":329.4731,"EPHEMERIS_TYPE":0,"NORAD_CAT_ID":59100,"ELEMENT_SET_NO":999,"REV_AT_EPOCH":11540,"BSTAR":0.00013922,"MEAN_MOTION_DOT":0.00002393,"MEAN_MOTION_DDOT":0},{"OBJECT_NAME":"ICEYE-X37","OBJECT_ID":"2024-043E","EPOCH":"2026-07-11T19:51:40.205088","CLASSIFICATION_TYPE":"U","MEAN_MOTION":15.0627988,"ECCENTRICITY":0.0013645,"INCLINATION":97.8333,"RA_OF_ASC_NODE":330.2216,"ARG_OF_PERICENTER":286.8147,"MEAN_ANOMALY":73.1582,"EPHEMERIS_TYPE":0,"NORAD_CAT_ID":59102,"ELEMENT_SET_NO":999,"REV_AT_EPOCH":12879,"BSTAR":0.00011239,"MEAN_MOTION_DOT":0.00001587,"MEAN_MOTION_DDOT":0},{"OBJECT_NAME":"ICEYE-X36","OBJECT_ID":"2024-043F","EPOCH":"2026-07-11T16:25:21.340992","CLASSIFICATION_TYPE":"U","MEAN_MOTION":15.07215357,"ECCENTRICITY":0.000505,"INCLINATION":97.8388,"RA_OF_ASC_NODE":331.198,"ARG_OF_PERICENTER":227.4607,"MEAN_ANOMALY":132.6194,"EPHEMERIS_TYPE":0,"NORAD_CAT_ID":59103,"ELEMENT_SET_NO":999,"REV_AT_EPOCH":12883,"BSTAR":0.00014771,"MEAN_MOTION_DOT":0.00002159,"MEAN_MOTION_DDOT":0},{"OBJECT_NAME":"ICEYE-X43","OBJECT_ID":"2024-149BZ","EPOCH":"2026-07-11T18:46:29.735904","CLASSIFICATION_TYPE":"U","MEAN_MOTION":14.99780913,"ECCENTRICITY":0.0006754,"INCLINATION":97.6813,"RA_OF_ASC_NODE":269.4175,"ARG_OF_PERICENTER":2.2764,"MEAN_ANOMALY":357.8488,"EPHEMERIS_TYPE":0,"NORAD_CAT_ID":60539,"ELEMENT_SET_NO":999,"REV_AT_EPOCH":10380,"BSTAR":0.00010054,"MEAN_MOTION_DOT":0.00001184,"MEAN_MOTION_DDOT":0},{"OBJECT_NAME":"ICEYE-X39","OBJECT_ID":"2024-149CG","EPOCH":"2026-07-11T18:13:38.811936","CLASSIFICATION_TYPE":"U","MEAN_MOTION":15.00057313,"ECCENTRICITY":0.000701,"INCLINATION":97.6781,"RA_OF_ASC_NODE":269.4505,"ARG_OF_PERICENTER":56.0311,"MEAN_ANOMALY":304.1578,"EPHEMERIS_TYPE":0,"NORAD_CAT_ID":60546,"ELEMENT_SET_NO":999,"REV_AT_EPOCH":10380,"BSTAR":0.00020551,"MEAN_MOTION_DOT":0.00002501,"MEAN_MOTION_DDOT":0},{"OBJECT_NAME":"ICEYE-X33","OBJECT_ID":"2024-149CJ","EPOCH":"2026-07-09T20:04:20.713440","CLASSIFICATION_TYPE":"U","MEAN_MOTION":15.00937312,"ECCENTRICITY":0.0001952,"INCLINATION":97.7345,"RA_OF_ASC_NODE":269.8614,"ARG_OF_PERICENTER":73.3938,"MEAN_ANOMALY":286.75,"EPHEMERIS_TYPE":0,"NORAD_CAT_ID":60548,"ELEMENT_SET_NO":999,"REV_AT_EPOCH":10360,"BSTAR":0.00025134873,"MEAN_MOTION_DOT":0.00003143,"MEAN_MOTION_DDOT":0},{"OBJECT_NAME":"ICEYE-X40","OBJECT_ID":"2024-149CK","EPOCH":"2026-07-11T18:00:46.065888","CLASSIFICATION_TYPE":"U","MEAN_MOTION":14.98053462,"ECCENTRICITY":0.0003836,"INCLINATION":97.6797,"RA_OF_ASC_NODE":268.8525,"ARG_OF_PERICENTER":17.7554,"MEAN_ANOMALY":342.3802,"EPHEMERIS_TYPE":0,"NORAD_CAT_ID":60549,"ELEMENT_SET_NO":999,"REV_AT_EPOCH":10375,"BSTAR":0.00011153,"MEAN_MOTION_DOT":0.00001261,"MEAN_MOTION_DDOT":0},{"OBJECT_NAME":"ICEYE-X49","OBJECT_ID":"2024-247H","EPOCH":"2026-07-11T11:03:04.031712","CLASSIFICATION_TYPE":"U","MEAN_MOTION":15.1360197,"ECCENTRICITY":0.00013194,"INCLINATION":44.9968,"RA_OF_ASC_NODE":227.7434,"ARG_OF_PERICENTER":238.3174,"MEAN_ANOMALY":121.7575,"EPHEMERIS_TYPE":0,"NORAD_CAT_ID":62384,"ELEMENT_SET_NO":999,"REV_AT_EPOCH":8585,"BSTAR":0.00010470817,"MEAN_MOTION_DOT":0.00001655,"MEAN_MOTION_DDOT":0},{"OBJECT_NAME":"ICEYE-X47","OBJECT_ID":"2024-247N","EPOCH":"2026-07-11T10:28:02.484768","CLASSIFICATION_TYPE":"U","MEAN_MOTION":15.13475729,"ECCENTRICITY":0.00017746,"INCLINATION":44.995,"RA_OF_ASC_NODE":227.4651,"ARG_OF_PERICENTER":328.9682,"MEAN_ANOMALY":31.1091,"EPHEMERIS_TYPE":0,"NORAD_CAT_ID":62389,"ELEMENT_SET_NO":999,"REV_AT_EPOCH":8585,"BSTAR":0.00010070501,"MEAN_MOTION_DOT":0.00001575,"MEAN_MOTION_DDOT":0},{"OBJECT_NAME":"ICEYE-X42","OBJECT_ID":"2025-009CT","EPOCH":"2026-07-11T18:07:55.473024","CLASSIFICATION_TYPE":"U","MEAN_MOTION":14.9184618,"ECCENTRICITY":0.0001492,"INCLINATION":97.7377,"RA_OF_ASC_NODE":270.6291,"ARG_OF_PERICENTER":80.0196,"MEAN_ANOMALY":280.1191,"EPHEMERIS_TYPE":0,"NORAD_CAT_ID":62698,"ELEMENT_SET_NO":999,"REV_AT_EPOCH":8095,"BSTAR":0.00012165,"MEAN_MOTION_DOT":0.00001173,"MEAN_MOTION_DDOT":0},{"OBJECT_NAME":"ICEYE-X41","OBJECT_ID":"2025-009CV","EPOCH":"2026-07-11T19:18:26.340192","CLASSIFICATION_TYPE":"U","MEAN_MOTION":14.96901994,"ECCENTRICITY":0.0000547,"INCLINATION":97.7063,"RA_OF_ASC_NODE":271.9737,"ARG_OF_PERICENTER":335.2649,"MEAN_ANOMALY":24.8546,"EPHEMERIS_TYPE":0,"NORAD_CAT_ID":62700,"ELEMENT_SET_NO":999,"REV_AT_EPOCH":8109,"BSTAR":0.00012647,"MEAN_MOTION_DOT":0.00001394,"MEAN_MOTION_DDOT":0},{"OBJECT_NAME":"ICEYE-X45","OBJECT_ID":"2025-009DA","EPOCH":"2026-07-11T19:08:42.061056","CLASSIFICATION_TYPE":"U","MEAN_MOTION":15.00851213,"ECCENTRICITY":0.0001221,"INCLINATION":97.8405,"RA_OF_ASC_NODE":279.6853,"ARG_OF_PERICENTER":78.5926,"MEAN_ANOMALY":281.5435,"EPHEMERIS_TYPE":0,"NORAD_CAT_ID":62705,"ELEMENT_SET_NO":999,"REV_AT_EPOCH":8137,"BSTAR":0.0003173,"MEAN_MOTION_DOT":0.00003973,"MEAN_MOTION_DDOT":0},{"OBJECT_NAME":"ICEYE-X44","OBJECT_ID":"2025-009DC","EPOCH":"2026-07-11T18:21:42.125760","CLASSIFICATION_TYPE":"U","MEAN_MOTION":14.96153599,"ECCENTRICITY":0.0002641,"INCLINATION":97.7055,"RA_OF_ASC_NODE":271.5025,"ARG_OF_PERICENTER":79.6019,"MEAN_ANOMALY":280.5499,"EPHEMERIS_TYPE":0,"NORAD_CAT_ID":62707,"ELEMENT_SET_NO":999,"REV_AT_EPOCH":10361,"BSTAR":0.00019893,"MEAN_MOTION_DOT":0.00002183,"MEAN_MOTION_DDOT":0}]}
